[{"OBJECT_NAME":"STARLINK-30541","OBJECT_ID":"2023-158G","EPOCH":"2026-03-09T22:00:01.999584","MEAN_MOTION":15.275745,"ECCENTRICITY":0.00013477,"INCLINATION":43.0015,"RA_OF_ASC_NODE":25.554,"ARG_OF_PERICENTER":266.1987,"MEAN_ANOMALY":222.2777,"EPHEMERIS_TYPE":0,"CLASSIFICATION_TYPE":"U","NORAD_CAT_ID":58057,"ELEMENT_SET_NO":999,"REV_AT_EPOCH":568,"BSTAR":0.0014250917,"MEAN_MOTION_DOT":0.00039155,"MEAN_MOTION_DDOT":0},{"OBJECT_NAME":"COSMOS 2251 DEB","OBJECT_ID":"1993-036AWN","EPOCH":"2026-03-09T06:26:08.321568","MEAN_MOTION":15.11257706,"ECCENTRICITY":0.00842289,"INCLINATION":74.0116,"RA_OF_ASC_NODE":284.5024,"ARG_OF_PERICENTER":350.308,"MEAN_ANOMALY":9.6482,"EPHEMERIS_TYPE":0,"CLASSIFICATION_TYPE":"U","NORAD_CAT_ID":35996,"ELEMENT_SET_NO":999,"REV_AT_EPOCH":73632,"BSTAR":0.00055219842,"MEAN_MOTION_DOT":0.00010085,"MEAN_MOTION_DDOT":0}]
